USA 270                 
1 41744U 16052A   24090.96716365 -.00000334  00000+0  00000+0 0  9991
2 41744   2.1149  87.4714 0002649 219.7213 356.7010  1.00349673 10631
USA 271                 
1 41745U 16052B   24103.37635785 -.00000276  00000+0  00000+0 0  9993
2 41745   2.1213  87.2950 0010441  13.9516 175.6578  0.99950817 10758
INTELSAT 36 (IS-36)     
1 41747U 16053A   24103.60600564 -.00000032  00000+0  00000+0 0  9999
2 41747   0.0089 280.7720 0000848  87.3680 119.7919  1.00266079 27973
INTELSAT 33E (IS-33E)   
1 41748U 16053B   24105.46558383  .00000039  00000+0  00000+0 0  9993
2 41748   0.0126 205.7749 0001942 175.1272  49.8174  1.00269694 28268
INSAT-3DR               
1 41752U 16054A   24104.82688184 -.00000087  00000+0  00000+0 0  9995
2 41752   0.1281  87.9413 0011391 189.3707 296.8556  1.00272393 27855
GSAT-18                 
1 41793U 16060A   24105.46836855 -.00000087  00000+0  00000+0 0  9998
2 41793   0.0767  85.5923 0001169  46.6911 313.4399  1.00271948 27566
SKY MUSTER 2 (NBN1B)    
1 41794U 16060B   24105.02549647 -.00000254  00000+0  00000+0 0  9997
2 41794   0.0135 250.1776 0001389 122.4348 344.0559  1.00272075 27619
HIMAWARI-9              
1 41836U 16064A   24104.75535437 -.00000285  00000+0  00000+0 0  9993
2 41836   0.0260  98.3568 0000598 258.9245 257.8194  1.00273444 27244
SHIJIAN-17 (SJ-17)      
1 41838U 16065A   24105.70172116 -.00000056  00000+0  00000+0 0  9999
2 41838   3.7265  82.1129 0004633 320.7041 220.3864  1.00270456 27273
GOES 16                 
1 41866U 16071A   24105.52827104 -.00000259  00000+0  00000+0 0  9996
2 41866   0.0150 266.1221 0000520 120.3512 291.6627  1.00270734 27145
TIANLIAN 1-04           
1 41869U 16072A   24105.49354966  .00000020  00000+0  00000+0 0  9992
2 41869   0.1609 272.7181 0028461 236.1625  48.7897  1.00269167 27341
WGS F8 (USA 272)        
1 41879U 16075A   24105.35466208 -.00000213  00000+0  00000+0 0  9999
2 41879   0.0097 219.9250 0000132 146.5210 114.0426  1.00270911 26962
FENGYUN 4A              
1 41882U 16077A   24104.84837815 -.00000210  00000+0  00000+0 0  9991
2 41882   0.2961  82.4543 0008398 344.4568 167.9488  1.00265037 26961
ECHOSTAR 19             
1 41893U 16079A   24104.16703088 -.00000147  00000+0  00000+0 0  9993
2 41893   0.0150 196.1515 0001293 172.3928 156.3043  1.00271856 26749
JCSAT-110A (JCSAT-15)   
1 41903U 16082A   24104.46355854 -.00000360  00000+0  00000+0 0  9993
2 41903   0.0156 207.1946 0000895 146.3817 125.4965  1.00270166 26814
STAR ONE D1             
1 41904U 16082B   24105.17349975 -.00000221  00000+0  00000+0 0  9996
2 41904   0.0111 250.8044 0002454 131.7107 158.7861  1.00272520 26824
TJS-2                   
1 41911U 17001A   24105.10900624 -.00000017  00000+0  00000+0 0  9996
2 41911   0.4102  83.9449 0002361 239.5153 345.0635  1.00274645 26757
SBIRS GEO-4 (USA 273)   
1 41937U 17004A   24104.86171744 -.00000154  00000+0  00000+0 0  9994
2 41937   1.4371 353.3068 0002226  17.8273  44.7919  1.00271725 26647
HISPASAT 36W-1          
1 41942U 17006A   24105.44652590 -.00000255  00000+0  00000+0 0  9992
2 41942   0.0184  43.6004 0000971 337.5529 306.6981  1.00271010 26578
TELKOM 3S               
1 41944U 17007A   24105.56179006 -.00000373  00000+0  00000+0 0  9995
2 41944   0.0145 146.1364 0002099 227.6864 149.6327  1.00272334 26253
INTELSAT 32E (IS-32E)   
1 41945U 17007B   24104.37125476 -.00000278  00000+0  00000+0 0  9990
2 41945   0.0136 180.1918 0000629 117.0024 355.3136  1.00271854 26254
ECHOSTAR 23             
1 42070U 17014A   24105.00222951 -.00000067  00000+0  00000+0 0  9991
2 42070   0.0176 218.6182 0002003 164.4426  70.4983  1.00271323 25983
WGS F9 (USA 275)        
1 42075U 17016A   24104.73536660 -.00000106  00000+0  00000+0 0  9996
2 42075   0.0130 219.3907 0000551  62.4617 173.3000  1.00270497 25924
SES-10                  
1 42432U 17017A   24105.44034729 -.00000283  00000+0  00000+0 0  9998
2 42432   0.0006  88.7705 0002310 299.0945 266.8453  1.00270311 25761
CHINASAT 16 (SJ-13)     
1 42662U 17018A   24105.40327162 -.00000363  00000+0  00000+0 0  9995
2 42662   0.0768  86.7486 0003840 203.6269 168.3708  1.00273831 25785
KOREASAT 7              
1 42691U 17023A   24105.55962229 -.00000372  00000+0  00000+0 0  9998
2 42691   0.0421  20.6308 0001207   5.4679 134.4806  1.00271755 25484
SGDC                    
1 42692U 17023B   24104.64597576 -.00000259  00000+0  00000+0 0  9991
2 42692   0.0396  67.7439 0002346 321.0922 331.1669  1.00272681 25488
GSAT-9                  
1 42695U 17024A   24104.85448152 -.00000297  00000+0  00000+0 0  9995
2 42695   0.0319 118.2239 0002479 260.5284 228.7482  1.00273230 25341
INMARSAT 5-F4           
1 42698U 17025A   24104.83243623  .00000065  00000+0  00000+0 0  9995
2 42698   0.0154 205.8176 0000320 130.8729 221.9702  1.00271583 25316
SES-15                  
1 42709U 17026A   24105.48729994  .00000049  00000+0  00000+0 0  9993
2 42709   0.0125  67.8329 0000429 264.9049 276.6733  1.00269983 26220
QZS-2 (MICHIBIKI-2)     
1 42738U 17028A   24104.27966106 -.00000215  00000+0  00000+0 0  9997
2 42738  40.6809 254.6839 0741774 270.5946 276.5073  1.00253563 25162
VIASAT-2                
1 42740U 17029A   24105.32984819 -.00000275  00000+0  00000+0 0  9995
2 42740   0.0159 131.2999 0000951 232.3072 248.2086  1.00270017 25210
EUTELSAT 172B           
1 42741U 17029B   24105.34472139 -.00000016  00000+0  00000+0 0  9998
2 42741   0.0462 162.4552 0000253  90.0523 246.5857  1.00271993 25754
GSAT-19                 
1 42747U 17031A   24105.10526427  .00000115  00000+0  00000+0 0  9990
2 42747   0.0940  85.3465 0005783 324.9162 238.2793  1.00270932 25162
ECHOSTAR 21             
1 42749U 17032A   24104.85327122  .00000053  00000+0  00000+0 0  9996
2 42749   2.6480 318.5635 0002306  57.2808 144.0964  1.00271725 25145
BULGARIASAT-1           
1 42801U 17038A   24105.09612689  .00000001  00000+0  00000+0 0  9996
2 42801   0.0201 138.4921 0002697 250.3713 210.3913  1.00272835 24949
HELLAS-SAT 3            
1 42814U 17040A   24104.88729937  .00000142  00000+0  00000+0 0  9990
2 42814   0.0647  29.9122 0005072 350.4468 180.5994  1.00273631 24844
GSAT-17                 
1 42815U 17040B   24104.85220590 -.00000268  00000+0  00000+0 0  9999
2 42815   0.0932  87.5913 0003901 215.7780 299.4342  1.00271422 24820
INTELSAT 35E (IS-35E)   
1 42818U 17041A   24105.37525439 -.00000248  00000+0  00000+0 0  9999
2 42818   0.0122 240.7132 0002126 131.5989 291.3138  1.00272194 24847
COSMOS 2520             
1 42907U 17046A   24105.46262507  .00000127  00000+0  00000+0 0  9992
2 42907   0.0288 112.1139 0001132 347.0724 315.4700  1.00270604 24437
TDRS 13                 
1 42915U 17047A   24105.15118800 -.00000112  00000+0  00000+0 0  9999
2 42915   3.6942 343.3204 0015537 106.6005 155.7952  1.00272161 24410
QZS-3 (MICHIBIKI-3)     
1 42917U 17048A   24104.83465341 -.00000358  00000+0  00000+0 0  9993
2 42917   0.0526 195.7020 0001754 187.7296 246.5780  1.00272668 24290
AMAZONAS 5              
1 42934U 17053A   24101.86214610 -.00000290  00000+0  00000+0 0  9994
2 42934   0.0389 327.4681 0004604  27.1148  94.3334  1.00270986 24131
ASIASAT 9               
1 42942U 17057A   24105.07549486 -.00000370  00000+0  00000+0 0  9995
2 42942   0.0151 247.9760 0002042 139.2064 324.8350  1.00269816 23977
INTELSAT 37E (IS-37E)   
1 42950U 17059A   24104.26356311 -.00000150  00000+0  00000+0 0  9995
2 42950   0.0148 188.3860 0002007 197.4123 252.9964  1.00271065 24099
BSAT-4A                 
1 42951U 17059B   24104.85837117 -.00000360  00000+0  00000+0 0  9992
2 42951   0.0874  68.3048 0004653 329.3222 223.7358  1.00270360 23837
QZS-4 (MICHIBIKI-4)     
1 42965U 17062A   24104.63961972 -.00000352  00000+0  00000+0 0  9995
2 42965  40.5413 353.6064 0748403 270.4228 307.9846  1.00271549 23846
SES-11 (ECHOSTAR 105)   
1 42967U 17063A   24105.54493966 -.00000100  00000+0  00000+0 0  9993
2 42967   0.0439  62.5728 0002273 285.4155 306.4162  1.00271942 23845
KOREASAT 5A             
1 42984U 17067A   24105.55780836 -.00000369  00000+0  00000+0 0  9999
2 42984   0.0090 215.6122 0001471 163.4915 138.0607  1.00272084 23676
ALCOMSAT 1              
1 43039U 17078A   24105.44878847 -.00000196  00000+0  00000+0 0  9999
2 43039   0.0285 281.5281 0001633  94.0264 324.3384  1.00272213 23315
SBIRS GEO-3 (USA 282)   
1 43162U 18009A   24104.77765958  .00000117  00000+0  00000+0 0  9996
2 43162   2.4380 333.3285 0001806  39.0090 310.6445  1.00272426 22874
AL YAH 3                
1 43174U 18012A   24105.15674236 -.00000165  00000+0  00000+0 0  9998
2 43174   0.0631 271.0822 0001891 110.7814 217.2909  1.00271400 22878
SES-14                  
1 43175U 18012B   24105.44426330 -.00000289  00000+0  00000+0 0  9998
2 43175   0.0179 309.0289 0000736  53.9605 312.5422  1.00271514 23087
GOES 17                 
1 43226U 18022A   24105.14649369 -.00000101  00000+0  00000+0 0  9995
2 43226   0.0386  49.6014 0000967 287.8642 173.3802  1.00271371 22470
HISPASAT 30W-6          
1 43228U 18023A   24105.30451696 -.00000227  00000+0  00000+0 0  9999
2 43228   0.0507  44.9524 0005814 343.9413 253.6715  1.00271485 22535
SUPERBIRD-B3            
1 43271U 18033A   24105.17479792 -.00000102  00000+0  00000+0 0  9992
2 43271   0.0140 242.6254 0000871 127.1000  58.0189  1.00272413 22089
HYLAS 4                 
1 43272U 18033B   24105.37542843 -.00000244  00000+0  00000+0 0  9990
2 43272   0.0711 268.9760 0000566 102.9607 292.7453  1.00271247 22100
IRNSS-1I                
1 43286U 18035A   24104.53386757  .00000090  00000+0  00000+0 0  9992
2 43286  28.9613  86.6427 0019664 188.0193 174.7630  1.00271166 22100
USA 283                 
1 43339U 18036A   24103.47555876 -.00000325  00000+0  00000+0 0  9996
2 43339   0.0139 214.0281 0000120 215.5347  76.8858  1.00274379 10764
